{
  "type": "FeatureCollection",
  "features": [
    {
      "type": "Feature",
      "properties": {
        "norad_id": 65731,
        "name": "1998-067XK",
        "group": "stations",
        "lat": 42.552704925682555,
        "lon": 138.82877064715737,
        "alt_km": 362.4000686359359,
        "timestamp": "2025-12-21T14:40:46.667391+00:00",
        "meta_object_name": "1998-067XK",
        "meta_object_id": "1998-067XK",
        "meta_epoch": "2025-12-20T00:10:02.026560",
        "meta_mean_motion": 15.67078773,
        "meta_eccentricity": 0.00047639,
        "meta_inclination": 51.6294,
        "meta_ra_of_asc_node": 100.3244,
        "meta_arg_of_pericenter": 292.7833,
        "meta_mean_anomaly": 67.2659,
        "meta_ephemeris_type": 0,
        "meta_classification_type": "U",
        "meta_norad_cat_id": 65731,
        "meta_element_set_no": 999,
        "meta_rev_at_epoch": 1428,
        "meta_bstar": 0.00070175188,
        "meta_mean_motion_dot": 0.00076617,
        "meta_mean_motion_ddot": 0,
        "tle_line1": "1 65731U 98067XK  25354.00696790  .00076617  00000+0  70175-3 0  9997",
        "tle_line2": "2 65731  51.6294 100.3244 0004763 292.7833  67.2659 15.67078773 14280"
      },
      "geometry": {
        "type": "Point",
        "coordinates": [
          138.82877064715737,
          42.552704925682555
        ]
      }
    },
    {
      "type": "Feature",
      "properties": {
        "norad_id": 65732,
        "name": "RSP-03",
        "group": "stations",
        "lat": 34.89063458670226,
        "lon": -122.30395909869857,
        "alt_km": 355.85694714131387,
        "timestamp": "2025-12-21T14:40:46.667403+00:00",
        "meta_object_name": "RSP-03",
        "meta_object_id": "1998-067XL",
        "meta_epoch": "2025-12-19T10:11:34.022112",
        "meta_mean_motion": 15.70283101,
        "meta_eccentricity": 0.0005658,
        "meta_inclination": 51.6265,
        "meta_ra_of_asc_node": 102.4221,
        "meta_arg_of_pericenter": 294.5755,
        "meta_mean_anomaly": 65.4652,
        "meta_ephemeris_type": 0,
        "meta_classification_type": "U",
        "meta_norad_cat_id": 65732,
        "meta_element_set_no": 999,
        "meta_rev_at_epoch": 1421,
        "meta_bstar": 0.00084699,
        "meta_mean_motion_dot": 0.00106087,
        "meta_mean_motion_ddot": 0,
        "tle_line1": "1 65732U 98067XL  25353.42469933  .00106087  00000+0  84699-3 0  9991",
        "tle_line2": "2 65732  51.6265 102.4221 0005658 294.5755  65.4652 15.70283101 14217"
      },
      "geometry": {
        "type": "Point",
        "coordinates": [
          -122.30395909869857,
          34.89063458670226
        ]
      }
    },
    {
      "type": "Feature",
      "properties": {
        "norad_id": 65733,
        "name": "GHS-01",
        "group": "stations",
        "lat": -51.34058449634869,
        "lon": 7.3523638740780655,
        "alt_km": 336.21383529222567,
        "timestamp": "2025-12-21T14:40:46.667414+00:00",
        "meta_object_name": "GHS-01",
        "meta_object_id": "1998-067XM",
        "meta_epoch": "2025-12-20T20:48:16.616736",
        "meta_mean_motion": 15.78264092,
        "meta_eccentricity": 0.0008588,
        "meta_inclination": 51.6278,
        "meta_ra_of_asc_node": 93.2966,
        "meta_arg_of_pericenter": 331.6414,
        "meta_mean_anomaly": 28.4119,
        "meta_ephemeris_type": 0,
        "meta_classification_type": "U",
        "meta_norad_cat_id": 65733,
        "meta_element_set_no": 999,
        "meta_rev_at_epoch": 1446,
        "meta_bstar": 0.0010694,
        "meta_mean_motion_dot": 0.00191722,
        "meta_mean_motion_ddot": 0,
        "tle_line1": "1 65733U 98067XM  25354.86685899  .00191722  00000+0  10694-2 0  9995",
        "tle_line2": "2 65733  51.6278  93.2966 0008588 331.6414  28.4119 15.78264092 14465"
      },
      "geometry": {
        "type": "Point",
        "coordinates": [
          7.3523638740780655,
          -51.34058449634869
        ]
      }
    },
    {
      "type": "Feature",
      "properties": {
        "norad_id": 65941,
        "name": "YOTSUBA-KULOVER",
        "group": "stations",
        "lat": -21.93813685678625,
        "lon": 76.73513524539725,
        "alt_km": 387.8886243291954,
        "timestamp": "2025-12-21T14:40:46.667425+00:00",
        "meta_object_name": "YOTSUBA-KULOVER",
        "meta_object_id": "1998-067XN",
        "meta_epoch": "2025-12-20T17:17:02.919552",
        "meta_mean_motion": 15.60468016,
        "meta_eccentricity": 0.00018346,
        "meta_inclination": 51.6291,
        "meta_ra_of_asc_node": 99.8352,
        "meta_arg_of_pericenter": 329.1843,
        "meta_mean_anomaly": 30.9043,
        "meta_ephemeris_type": 0,
        "meta_classification_type": "U",
        "meta_norad_cat_id": 65941,
        "meta_element_set_no": 999,
        "meta_rev_at_epoch": 1110,
        "meta_bstar": 0.00060496039,
        "meta_mean_motion_dot": 0.00050568,
        "meta_mean_motion_ddot": 0,
        "tle_line1": "1 65941U 98067XN  25354.72017268  .00050568  00000+0  60496-3 0  9998",
        "tle_line2": "2 65941  51.6291  99.8352 0001834 329.1843  30.9043 15.60468016 11102"
      },
      "geometry": {
        "type": "Point",
        "coordinates": [
          76.73513524539725,
          -21.93813685678625
        ]
      }
    },
    {
      "type": "Feature",
      "properties": {
        "norad_id": 65942,
        "name": "BOTAN",
        "group": "stations",
        "lat": 42.87545184271192,
        "lon": 141.77349112630284,
        "alt_km": 369.26314939245185,
        "timestamp": "2025-12-21T14:40:46.667437+00:00",
        "meta_object_name": "BOTAN",
        "meta_object_id": "1998-067XP",
        "meta_epoch": "2025-12-20T13:53:44.237472",
        "meta_mean_motion": 15.64441775,
        "meta_eccentricity": 0.00029505,
        "meta_inclination": 51.6283,
        "meta_ra_of_asc_node": 99.6415,
        "meta_arg_of_pericenter": 304.2475,
        "meta_mean_anomaly": 55.824,
        "meta_ephemeris_type": 0,
        "meta_classification_type": "U",
        "meta_norad_cat_id": 65942,
        "meta_element_set_no": 999,
        "meta_rev_at_epoch": 1109,
        "meta_bstar": 0.00083574073,
        "meta_mean_motion_dot": 0.00082185,
        "meta_mean_motion_ddot": 0,
        "tle_line1": "1 65942U 98067XP  25354.57898423  .00082185  00000+0  83574-3 0  9994",
        "tle_line2": "2 65942  51.6283  99.6415 0002950 304.2475  55.8240 15.64441775 11097"
      },
      "geometry": {
        "type": "Point",
        "coordinates": [
          141.77349112630284,
          42.87545184271192
        ]
      }
    },
    {
      "type": "Feature",
      "properties": {
        "norad_id": 65943,
        "name": "E-KAGAKU-1",
        "group": "stations",
        "lat": -22.01895564732274,
        "lon": 76.65726135352185,
        "alt_km": 388.5192698653036,
        "timestamp": "2025-12-21T14:40:46.667448+00:00",
        "meta_object_name": "E-KAGAKU-1",
        "meta_object_id": "1998-067XQ",
        "meta_epoch": "2025-12-18T08:24:49.666176",
        "meta_mean_motion": 15.60193795,
        "meta_eccentricity": 0.00013451,
        "meta_inclination": 51.6302,
        "meta_ra_of_asc_node": 111.7666,
        "meta_arg_of_pericenter": 249.8249,
        "meta_mean_anomaly": 110.26,
        "meta_ephemeris_type": 0,
        "meta_classification_type": "U",
        "meta_norad_cat_id": 65943,
        "meta_element_set_no": 999,
        "meta_rev_at_epoch": 1073,
        "meta_bstar": 0.00084619625,
        "meta_mean_motion_dot": 0.00070368,
        "meta_mean_motion_ddot": 0,
        "tle_line1": "1 65943U 98067XQ  25352.35057484  .00070368  00000+0  84620-3 0  9996",
        "tle_line2": "2 65943  51.6302 111.7666 0001345 249.8249 110.2600 15.60193795 10732"
      },
      "geometry": {
        "type": "Point",
        "coordinates": [
          76.65726135352185,
          -22.01895564732274
        ]
      }
    },
    {
      "type": "Feature",
      "properties": {
        "norad_id": 66052,
        "name": "HRC MONOBLOCK CAMERA",
        "group": "stations",
        "lat": 32.789390853273815,
        "lon": -113.43941342159968,
        "alt_km": 398.70026186420455,
        "timestamp": "2025-12-21T14:40:46.667459+00:00",
        "meta_object_name": "HRC MONOBLOCK CAMERA",
        "meta_object_id": "1998-067XR",
        "meta_epoch": "2025-12-21T00:12:43.041600",
        "meta_mean_motion": 15.54684783,
        "meta_eccentricity": 0.00024239,
        "meta_inclination": 51.6308,
        "meta_ra_of_asc_node": 100.2596,
        "meta_arg_of_pericenter": 223.3517,
        "meta_mean_anomaly": 136.7283,
        "meta_ephemeris_type": 0,
        "meta_classification_type": "U",
        "meta_norad_cat_id": 66052,
        "meta_element_set_no": 999,
        "meta_rev_at_epoch": 1012,
        "meta_bstar": 0.00039906509,
        "meta_mean_motion_dot": 0.00026569,
        "meta_mean_motion_ddot": 0,
        "tle_line1": "1 66052U 98067XR  25355.00883150  .00026569  00000+0  39907-3 0  9992",
        "tle_line2": "2 66052  51.6308 100.2596 0002423 223.3517 136.7283 15.54684783 10126"
      },
      "geometry": {
        "type": "Point",
        "coordinates": [
          -113.43941342159968,
          32.789390853273815
        ]
      }
    }
  ]
}